1 39453U 13067C   21266.17657517  .00002944  00000-0  59409-4 0  9997
2 39453  87.3457 322.1571 0003218  79.7144 280.4477 15.46028840440634
1 39453U 13067C   21266.56493940  .00003722  00000-0  75361-4 0  9998
2 39453  87.3456 322.0146 0003202  79.2765 280.8854 15.46033007440653
1 39453U 13067C   21266.88857675  .00003443  00000-0  69638-4 0  9992
2 39453  87.3454 321.8959 0003207  79.8928 280.2692 15.46033165440707
1 39453U 13067C   21267.53584888  .00002962  00000-0  59767-4 0  9995
2 39453  87.3454 321.6583 0003168  79.4939 280.6676 15.46037036440800
1 39453U 13067C   21267.73003032  .00002794  00000-0  56329-4 0  9998
2 39453  87.3453 321.5871 0003161  79.4227 280.7387 15.46037773440876
1 39453U 13067C   21267.85948442  .00002937  00000-0  59254-4 0  9993
2 39453  87.3452 321.5396 0003155  79.3183 280.8430 15.46038840440854
1 39453U 13067C   21268.24784671  .00002952  00000-0  59561-4 0  9997
2 39453  87.3452 321.3970 0003133  79.0923 281.0688 15.46040794440911
1 39453U 13067C   21268.70093507  .00003089  00000-0  62354-4 0  9995
2 39453  87.3451 321.2307 0003112  78.9266 281.2342 15.46043958440989
1 39453U 13067C   21269.15402291  .00003171  00000-0  64041-4 0  9996
2 39453  87.3450 321.0644 0003091  78.8587 281.3019 15.46046420441093
1 39453U 13067C   21269.54238328  .00003147  00000-0  63544-4 0  9997
2 39453  87.3450 320.9219 0003073  78.7893 281.3710 15.46048590441119
1 39453U 13067C   21269.86601647  .00003163  00000-0  63862-4 0  9991
2 39453  87.3449 320.8031 0003064  78.6302 281.5301 15.46050459441162
1 39453U 13067C   21270.38382872  .00003087  00000-0  62303-4 0  9990
2 39453  87.3450 320.6130 0003038  78.5877 281.5723 15.46053135441284
1 39453U 13067C   21270.57800799  .00002340  00000-0  46981-4 0  9999
2 39453  87.3449 320.5417 0003027  78.7379 281.4220 15.46052153441275
1 39453U 13067C   21270.90164020  .00003093  00000-0  62412-4 0  9999
2 39453  87.3449 320.4229 0003022  78.4382 281.7215 15.46055892441327
1 39453U 13067C   21271.41945070  .00003135  00000-0  63281-4 0  9990
2 39453  87.3449 320.2328 0003001  78.0564 282.1030 15.46058892441446
1 39453U 13067C   21271.54890313  .00003131  00000-0  63186-4 0  9993
2 39453  87.3449 320.1852 0002993  78.1843 281.9751 15.46059640441424
1 39453U 13067C   21272.51979471  .00002911  00000-0  58672-4 0  9993
2 39453  87.3449 319.8289 0002939  78.2793 281.8795 15.46064412441574
1 39453U 13067C   21272.77869854  .00003031  00000-0  61130-4 0  9991
2 39453  87.3449 319.7339 0002930  78.1836 281.9750 15.46066107441651
1 39453U 13067C   21273.49068250  .00003279  00000-0  66194-4 0  9991
2 39453  87.3449 319.4725 0002892  78.2303 281.9279 15.46071049441729
1 39453U 13067C   21274.13793860  .00003705  00000-0  74914-4 0  9998
2 39453  87.3448 319.2349 0002860  78.1753 281.9826 15.46076236441867
1 39453U 13067C   21274.59101680  .00003509  00000-0  70889-4 0  9990
2 39453  87.3448 319.0686 0002846  78.1530 282.0047 15.46078793441896
1 39453U 13067C   21274.84991820  .00003500  00000-0  70702-4 0  9996
2 39453  87.3447 318.9736 0002839  78.2976 281.8601 15.46080455441932
1 39453U 13067C   21275.17354504  .00003064  00000-0  61764-4 0  9998
2 39453  87.3449 318.8548 0002838  78.5492 281.6085 15.46081023441980
1 39453U 13067C   21275.43244591  .00003007  00000-0  60612-4 0  9999
2 39453  87.3447 318.7598 0002814  78.4256 281.7318 15.46082446442063
1 39453U 13067C   21275.69134640  .00003382  00000-0  68284-4 0  9999
2 39453  87.3448 318.6648 0002818  78.7934 281.3641 15.46085246442065
1 39453U 13067C   21276.53277089  .00003069  00000-0  61862-4 0  9995
2 39453  87.3446 318.3560 0002777  78.9918 281.1653 15.46090566442197
1 39453U 13067C   21276.72694552  .00003036  00000-0  61181-4 0  9992
2 39453  87.3444 318.2847 0002756  78.3570 281.7997 15.46091350442264
1 39453U 13067C   21276.85639501  .00003197  00000-0  64470-4 0  9991
2 39453  87.3443 318.2372 0002749  78.4460 281.7107 15.46092565442247
1 39453U 13067C   21277.50364222  .00002975  00000-0  59928-4 0  9994
2 39453  87.3441 317.9996 0002710  78.7663 281.3899 15.46096321442348
1 39453U 13067C   21277.82726525  .00002947  00000-0  59346-4 0  9990
2 39453  87.3440 317.8808 0002700  78.8327 281.3235 15.46098069442395
1 39453U 13067C   21278.08616190  .00002949  00000-0  59358-4 0  9990
2 39453  87.3439 317.7853 0002721  80.3613 279.7952 15.46109361442475
1 39453U 13067C   21278.40978251  .00002664  00000-0  53535-4 0  9990
2 39453  87.3438 317.6664 0002645  77.8525 282.3030 15.46110241442488
1 39453U 13067C   21278.86285048  .00002815  00000-0  56610-4 0  9990
2 39453  87.3436 317.5004 0002653  78.8313 281.3243 15.46112950442550
1 39453U 13067C   21279.38064165  .00002603  00000-0  52272-4 0  9998
2 39453  87.3435 317.3102 0002629  79.0129 281.1425 15.46115269442676
1 39453U 13067C   21279.89843156  .00002776  00000-0  55792-4 0  9990
2 39453  87.3433 317.1201 0002613  79.3084 280.8469 15.46118769442715
1 39453U 13067C   21280.54566782  .00002895  00000-0  58222-4 0  9994
2 39453  87.3431 316.8824 0002581  79.7174 280.4375 15.46122612442813
1 39453U 13067C   21280.73983837  .00002875  00000-0  57811-4 0  9990
2 39453  87.3430 316.8110 0002574  79.7114 280.4435 15.46123709442888
1 39453U 13067C   21280.86928519  .00002995  00000-0  60277-4 0  9993
2 39453  87.3430 316.7635 0002569  79.7911 280.3637 15.46124821442865
1 39453U 13067C   21281.51651926  .00002902  00000-0  58361-4 0  9990
2 39453  87.3428 316.5257 0002541  80.1795 279.9750 15.46128159442965
1 39453U 13067C   21281.71068916  .00002892  00000-0  58148-4 0  9994
2 39453  87.3428 316.4543 0002534  80.1689 279.9855 15.46129223442998
1 39453U 13067C   21282.09902841  .00002917  00000-0  58659-4 0  9995
2 39453  87.3427 316.3117 0002515  80.4409 279.7134 15.46131590443095
1 39453U 13067C   21282.22847478  .00002885  00000-0  57996-4 0  9991
2 39453  87.3427 316.2641 0002510  80.5164 279.6378 15.46132177443079
1 39453U 13067C   21282.74625955  .00002870  00000-0  57685-4 0  9991
2 39453  87.3426 316.0739 0002493  80.9300 279.2241 15.46135072443151
1 39453U 13067C   21283.13459746  .00002834  00000-0  56959-4 0  9991
2 39453  87.3426 315.9311 0002479  81.2329 278.9210 15.46137237443252
1 39453U 13067C   21283.52293521  .00002997  00000-0  60281-4 0  9994
2 39453  87.3426 315.7884 0002464  81.5246 278.6291 15.46139684443276
1 39453U 13067C   21283.84654917  .00003352  00000-0  67538-4 0  9997
2 39453  87.3426 315.6695 0002460  81.6428 278.5110 15.46142333443324
1 39453U 13067C   21284.49377610  .00003312  00000-0  66714-4 0  9992
2 39453  87.3426 315.4316 0002439  82.0953 278.0582 15.46145969443467
1 39453U 13067C   21284.55849866  .00003328  00000-0  67040-4 0  9996
2 39453  87.3426 315.4079 0002437  82.0610 278.0924 15.46146444443437
1 39453U 13067C   21284.88211143  .00003357  00000-0  67627-4 0  9996
2 39453  87.3426 315.2890 0002432  82.3994 277.7541 15.46148318443487
1 39453U 13067C   21285.52933533  .00004098  00000-0  82744-4 0  9992
2 39453  87.3428 315.0510 0002427  83.4129 276.7405 15.46153886443587
1 39453U 13067C   21285.78822395  .00004347  00000-0  87828-4 0  9998
2 39453  87.3428 314.9559 0002418  83.5286 276.6247 15.46156475443662
1 39453U 13067C   21285.85294611  .00004340  00000-0  87682-4 0  9991
2 39453  87.3428 314.9321 0002419  83.5727 276.5806 15.46156948443632
1 39453U 13067C   21286.50016657  .00003544  00000-0  71417-4 0  9990
2 39453  87.3428 314.6943 0002401  84.6606 275.4926 15.46160294443739
1 39453U 13067C   21286.82377616  .00003361  00000-0  67675-4 0  9998
2 39453  87.3428 314.5754 0002397  84.9411 275.2121 15.46162181443821
1 39453U 13067C   21286.88849800  .00003350  00000-0  67451-4 0  9993
2 39453  87.3428 314.5516 0002395  85.0028 275.1503 15.46162662443794
1 39453U 13067C   21287.53571555  .00003155  00000-0  63447-4 0  9999
2 39453  87.3428 314.3138 0002375  85.3428 274.8101 15.46167020443891
1 39453U 13067C   21287.72988072  .00003213  00000-0  64632-4 0  9998
2 39453  87.3426 314.2425 0002364  85.1828 274.9701 15.46167867443927
1 39453U 13067C   21288.11821013  .00003281  00000-0  66026-4 0  9997
2 39453  87.3426 314.0998 0002351  85.5787 274.5740 15.46170595444027
1 39453U 13067C   21288.37709604  .00003037  00000-0  61023-4 0  9997
2 39453  87.3426 314.0047 0002344  85.9220 274.2306 15.46171959444020
1 39453U 13067C   21288.76542463  .00002982  00000-0  59901-4 0  9998
2 39453  87.3425 313.8620 0002347  86.3739 273.7788 15.46174243444089
1 39453U 13067C   21289.21847394  .00002965  00000-0  59545-4 0  9995
2 39453  87.3424 313.6956 0002341  87.1716 272.9810 15.46176799444159
1 39453U 13067C   21289.34791657  .00002879  00000-0  57799-4 0  9992
2 39453  87.3424 313.6480 0002334  86.9429 273.2096 15.46177320444219
1 39453U 13067C   21289.34791657  .00002879  00000-0  57799-4 0  9992
2 39453  87.3424 313.6480 0002334  86.9429 273.2096 15.46177320444174
1 39453U 13067C   21289.54208045  .00002750  00000-0  55152-4 0  9997
2 39453  87.3424 313.5767 0002331  87.1088 273.0437 15.46178048444201
1 39453U 13067C   21290.64233994  .00002642  00000-0  52935-4 0  9997
2 39453  87.3420 313.1724 0002313  88.2251 271.9272 15.46183304444418
1 39453U 13067C   21290.90122371  .00002782  00000-0  55806-4 0  9997
2 39453  87.3419 313.0773 0002313  88.5590 271.5934 15.46185125444412
1 39453U 13067C   21291.54843201  .00003041  00000-0  61068-4 0  9996
2 39453  87.3418 312.8394 0002306  89.3126 270.8397 15.46189577444514
1 39453U 13067C   21291.87203569  .00003093  00000-0  62139-4 0  9996
2 39453  87.3416 312.7205 0002304  89.6498 270.5025 15.46191385444565
1 39453U 13067C   21292.06619764  .00003096  00000-0  62199-4 0  9995
2 39453  87.3416 312.6491 0002305  89.9173 270.2350 15.46192592444632
1 39453U 13067C   21292.51924164  .00002622  00000-0  52523-4 0  9992
2 39453  87.3415 312.4826 0002306  90.5176 269.6347 15.46193829444668
1 39453U 13067C   21292.84284416  .00003003  00000-0  60282-4 0  9992
2 39453  87.3414 312.3637 0002310  90.8002 269.3521 15.46196821444714
